{
  "type": "FeatureCollection",
  "features": [
    {
      "type": "Feature",
      "properties": {
        "norad_id": 27954,
        "name": "GALAXY 13 (HORIZONS-1)",
        "group": "intelsat",
        "lat": -0.4338997011954459,
        "lon": 56.334962142111394,
        "alt_km": 35794.8009031021,
        "timestamp": "2025-12-02T08:59:32.387109+00:00",
        "meta_object_name": "GALAXY 13 (HORIZONS-1)",
        "meta_object_id": "2003-044A",
        "meta_epoch": "2025-12-02T02:47:56.126112",
        "meta_mean_motion": 1.00271949,
        "meta_eccentricity": 0.0002087,
        "meta_inclination": 0.9081,
        "meta_ra_of_asc_node": 86.5991,
        "meta_arg_of_pericenter": 158.6451,
        "meta_mean_anomaly": 77.9559,
        "meta_ephemeris_type": 0,
        "meta_classification_type": "U",
        "meta_norad_cat_id": 27954,
        "meta_element_set_no": 999,
        "meta_rev_at_epoch": 4459,
        "meta_bstar": 0,
        "meta_mean_motion_dot": 1.54e-06,
        "meta_mean_motion_ddot": 0,
        "tle_line1": "1 27954U 03044A   25336.11662183  .00000154  00000+0  00000+0 0  9993",
        "tle_line2": "2 27954   0.9081  86.5991 0002087 158.6451  77.9559  1.00271949 44599"
      },
      "geometry": {
        "type": "Point",
        "coordinates": [
          56.334962142111394,
          -0.4338997011954459
        ]
      }
    },
    {
      "type": "Feature",
      "properties": {
        "norad_id": 28358,
        "name": "INTELSAT 10-02",
        "group": "intelsat",
        "lat": -0.0037199301484779172,
        "lon": -154.6721776606422,
        "alt_km": 35784.7510921499,
        "timestamp": "2025-12-02T08:59:32.387121+00:00",
        "meta_object_name": "INTELSAT 10-02",
        "meta_object_id": "2004-022A",
        "meta_epoch": "2025-12-01T17:14:05.460000",
        "meta_mean_motion": 1.00270385,
        "meta_eccentricity": 0.0001102,
        "meta_inclination": 0.04,
        "meta_ra_of_asc_node": 91.6394,
        "meta_arg_of_pericenter": 182.5327,
        "meta_mean_anomaly": 54.1897,
        "meta_ephemeris_type": 0,
        "meta_classification_type": "U",
        "meta_norad_cat_id": 28358,
        "meta_element_set_no": 999,
        "meta_rev_at_epoch": 7857,
        "meta_bstar": 0,
        "meta_mean_motion_dot": 1e-07,
        "meta_mean_motion_ddot": 0,
        "tle_line1": "1 28358U 04022A   25335.71811875  .00000010  00000+0  00000+0 0  9999",
        "tle_line2": "2 28358   0.0400  91.6394 0001102 182.5327  54.1897  1.00270385 78573"
      },
      "geometry": {
        "type": "Point",
        "coordinates": [
          -154.6721776606422,
          -0.0037199301484779172
        ]
      }
    },
    {
      "type": "Feature",
      "properties": {
        "norad_id": 28626,
        "name": "XM-3 (RHYTHM)",
        "group": "intelsat",
        "lat": -0.1135057310604978,
        "lon": 9.817980432375018,
        "alt_km": 36155.929108845885,
        "timestamp": "2025-12-02T08:59:32.387133+00:00",
        "meta_object_name": "XM-3 (RHYTHM)",
        "meta_object_id": "2005-008A",
        "meta_epoch": "2025-12-01T16:19:10.717824",
        "meta_mean_motion": 0.98955107,
        "meta_eccentricity": 8.38e-05,
        "meta_inclination": 0.1433,
        "meta_ra_of_asc_node": 80.6256,
        "meta_arg_of_pericenter": 270.4663,
        "meta_mean_anomaly": 131.2697,
        "meta_ephemeris_type": 0,
        "meta_classification_type": "U",
        "meta_norad_cat_id": 28626,
        "meta_element_set_no": 999,
        "meta_rev_at_epoch": 4064,
        "meta_bstar": 0,
        "meta_mean_motion_dot": -2.1e-06,
        "meta_mean_motion_ddot": 0,
        "tle_line1": "1 28626U 05008A   25335.67998516 -.00000210  00000+0  00000+0 0  9998",
        "tle_line2": "2 28626   0.1433  80.6256 0000838 270.4663 131.2697  0.98955107 40648"
      },
      "geometry": {
        "type": "Point",
        "coordinates": [
          9.817980432375018,
          -0.1135057310604978
        ]
      }
    },
    {
      "type": "Feature",
      "properties": {
        "norad_id": 28659,
        "name": "DIRECTV 8",
        "group": "intelsat",
        "lat": 0.017906793979924413,
        "lon": 87.29375171016542,
        "alt_km": 35799.53329804025,
        "timestamp": "2025-12-02T08:59:32.387145+00:00",
        "meta_object_name": "DIRECTV 8",
        "meta_object_id": "2005-019A",
        "meta_epoch": "2025-12-01T16:40:23.687040",
        "meta_mean_motion": 1.00271171,
        "meta_eccentricity": 0.0003189,
        "meta_inclination": 0.0147,
        "meta_ra_of_asc_node": 288.7925,
        "meta_arg_of_pericenter": 328.872,
        "meta_mean_anomaly": 304.2088,
        "meta_ephemeris_type": 0,
        "meta_classification_type": "U",
        "meta_norad_cat_id": 28659,
        "meta_element_set_no": 999,
        "meta_rev_at_epoch": 7509,
        "meta_bstar": 0,
        "meta_mean_motion_dot": 2.3e-07,
        "meta_mean_motion_ddot": 0,
        "tle_line1": "1 28659U 05019A   25335.69471860  .00000023  00000+0  00000+0 0  9997",
        "tle_line2": "2 28659   0.0147 288.7925 0003189 328.8720 304.2088  1.00271171 75092"
      },
      "geometry": {
        "type": "Point",
        "coordinates": [
          87.29375171016542,
          0.017906793979924413
        ]
      }
    },
    {
      "type": "Feature",
      "properties": {
        "norad_id": 28702,
        "name": "GALAXY 28 (G-28)",
        "group": "intelsat",
        "lat": 1.6574507918137442,
        "lon": 117.57457013655944,
        "alt_km": 35795.37945622446,
        "timestamp": "2025-12-02T08:59:32.387158+00:00",
        "meta_object_name": "GALAXY 28 (G-28)",
        "meta_object_id": "2005-022A",
        "meta_epoch": "2025-12-02T03:05:24.451872",
        "meta_mean_motion": 1.00270647,
        "meta_eccentricity": 0.000266,
        "meta_inclination": 2.7916,
        "meta_ra_of_asc_node": 81.4017,
        "meta_arg_of_pericenter": 180.9183,
        "meta_mean_anomaly": 126.5553,
        "meta_ephemeris_type": 0,
        "meta_classification_type": "U",
        "meta_norad_cat_id": 28702,
        "meta_element_set_no": 999,
        "meta_rev_at_epoch": 4999,
        "meta_bstar": 0,
        "meta_mean_motion_dot": -1.66e-06,
        "meta_mean_motion_ddot": 0,
        "tle_line1": "1 28702U 05022A   25336.12875523 -.00000166  00000+0  00000+0 0  9992",
        "tle_line2": "2 28702   2.7916  81.4017 0002660 180.9183 126.5553  1.00270647 49996"
      },
      "geometry": {
        "type": "Point",
        "coordinates": [
          117.57457013655944,
          1.6574507918137442
        ]
      }
    },
    {
      "type": "Feature",
      "properties": {
        "norad_id": 29236,
        "name": "GALAXY 16 (G-16)",
        "group": "intelsat",
        "lat": -0.01060987591667733,
        "lon": 107.31192469567765,
        "alt_km": 35796.03193777404,
        "timestamp": "2025-12-02T08:59:32.387186+00:00",
        "meta_object_name": "GALAXY 16 (G-16)",
        "meta_object_id": "2006-023A",
        "meta_epoch": "2025-12-01T15:03:17.987328",
        "meta_mean_motion": 1.00270395,
        "meta_eccentricity": 0.0002803,
        "meta_inclination": 0.0267,
        "meta_ra_of_asc_node": 225.3015,
        "meta_arg_of_pericenter": 25.4892,
        "meta_mean_anomaly": 306.776,
        "meta_ephemeris_type": 0,
        "meta_classification_type": "U",
        "meta_norad_cat_id": 29236,
        "meta_element_set_no": 999,
        "meta_rev_at_epoch": 7099,
        "meta_bstar": 0,
        "meta_mean_motion_dot": -1.05e-06,
        "meta_mean_motion_ddot": 0,
        "tle_line1": "1 29236U 06023A   25335.62729152 -.00000105  00000+0  00000+0 0  9990",
        "tle_line2": "2 29236   0.0267 225.3015 0002803  25.4892 306.7760  1.00270395 70991"
      },
      "geometry": {
        "type": "Point",
        "coordinates": [
          107.31192469567765,
          -0.01060987591667733
        ]
      }
    },
    {
      "type": "Feature",
      "properties": {
        "norad_id": 29494,
        "name": "DIRECTV 9S",
        "group": "intelsat",
        "lat": 0.7218480674370136,
        "lon": 105.10572844562816,
        "alt_km": 35796.79172802673,
        "timestamp": "2025-12-02T08:59:32.387199+00:00",
        "meta_object_name": "DIRECTV 9S",
        "meta_object_id": "2006-043A",
        "meta_epoch": "2025-12-01T11:37:15.220416",
        "meta_mean_motion": 1.00270787,
        "meta_eccentricity": 0.00031036,
        "meta_inclination": 1.9085,
        "meta_ra_of_asc_node": 83.3306,
        "meta_arg_of_pericenter": 164.8437,
        "meta_mean_anomaly": 255.5441,
        "meta_ephemeris_type": 0,
        "meta_classification_type": "U",
        "meta_norad_cat_id": 29494,
        "meta_element_set_no": 999,
        "meta_rev_at_epoch": 4940,
        "meta_bstar": 0,
        "meta_mean_motion_dot": -9.2e-07,
        "meta_mean_motion_ddot": 0,
        "tle_line1": "1 29494U 06043A   25335.48420394 -.00000092  00000+0  00000+0 0  9993",
        "tle_line2": "2 29494   1.9085  83.3306 0003103 164.8437 255.5441  1.00270787 49401"
      },
      "geometry": {
        "type": "Point",
        "coordinates": [
          105.10572844562816,
          0.7218480674370136
        ]
      }
    }
  ]
}